CZ-2C R/B               
1 31114U 07010B   26199.83215993  .00000045  00000+0  40087-4 0  9996
2 31114  98.4121 306.6390 0057724 272.9725  86.4848 14.20282372998334
COSMO-SKYMED 1          
1 31598U 07023A   26199.81428354  .00001588  00000+0  14240-3 0  9995
2 31598  97.8850  31.9380 0001707 100.1552 259.9862 14.97230695 34529
COSMOS 2428             
1 31792U 07029A   26199.50625017  .00000283  00000+0  17768-3 0  9997
2 31792  70.9383 288.7199 0007248  74.7600 285.4322 14.12936588982577
SL-16 R/B               
1 31793U 07029B   26199.59066204  .00000282  00000+0  17099-3 0  9990
2 31793  70.9742 257.2149 0001915 257.3549 264.6800 14.14853609983888
KORONAS-FOTON           
1 33504U 09003A   26199.79282947  .00007357  00000+0  14788-3 0  9994
2 33504  82.4309 139.2756 0011859  51.2618 308.9689 15.46354152965989
CZ-2C R/B               
1 37731U 11030B   26199.84490409  .00000436  00000+0  61403-4 0  9991
2 37731  97.8671 154.6647 0050698 283.9592  97.6939 14.81536151809511
H-2A R/B                
1 38341U 12025E   26199.86506856  .00000764  00000+0  73468-4 0  9998
2 38341  98.4846 177.6291 0042657 242.6197 117.0678 14.95842889767826
SHIJIAN-16 (SJ-16)      
1 39358U 13057A   26199.87555475  .00000230  00000+0  25078-4 0  9997
2 39358  74.9739 296.6637 0015666 155.7621 204.4308 14.92675113691072
SL-4 R/B                
1 39679U 14021B   26199.81422678  .00005995  00000+0  12682-3 0  9996
2 39679  51.6064  55.7601 0089505 221.8175 137.5948 15.42526441676498
ALOS-2                  
1 39766U 14029A   26199.85898208  .00000518  00000+0  76232-4 0  9999
2 39766  97.9230 296.5702 0001594  90.6510 269.4884 14.79472275656268
YAOGAN-29               
1 41038U 15069A   26199.88754435 -.00000296  00000+0 -29723-4 0  9993
2 41038  98.0015 228.5686 0000409 359.9129   0.2084 14.83105913575320
ASTRO-H (HITOMI)        
1 41337U 16012A   26199.42100276  .00001185  00000+0  64174-4 0  9997
2 41337  30.9977 232.4505 0009646 207.7740 152.2384 15.10639796572015
HXMT (HUIYAN)           
1 42758U 17034A   26199.83726411  .00001877  00000+0  99358-4 0  9990
2 42758  43.0153   6.7731 0031836 343.6262  16.3556 15.18705784502475
SAOCOM 1A               
1 43641U 18076A   26199.79850873  .00000163  00000+0  27032-4 0  9991
2 43641  97.8885  26.0874 0001429  86.3308 273.8068 14.82148091420789
H-2A R/B                
1 43682U 18084L   26199.65358911  .00011086  00000+0  22575-3 0  9998
2 43682  98.8523  85.4439 0020330 287.4775  72.4248 15.46284035425984
SAOCOM 1B               
1 46265U 20059A   26199.82970257  .00000621  00000+0  84573-4 0  9995
2 46265  97.8891  25.2147 0001520  83.4282 276.7104 14.82146700318173
CSS (TIANHE)            
1 48274U 21035A   26199.86839132  .00011657  00000+0  15417-3 0  9993
2 48274  41.4683 129.5686 0002055 305.4241  54.6405 15.58184623298119
COSMOS 2550             
1 48865U 21056A   26199.84565135  .00002807  00000+0  91068-4 0  9993
2 48865  67.1440   4.1401 0008531 269.7692  90.2485 15.33849505283579
CZ-2C R/B               
1 52794U 22058K   26199.50494360  .00023418  00000+0  24205-3 0  9995
2 52794  50.1860   0.2868 0030142  36.5675 323.7350 15.64029106230546
CZ-2C R/B               
1 54039U 22132E   26198.99741093  .00044818  00000+0  29840-3 0  9999
2 54039  97.2889 207.4843 0008934 329.3088  30.7654 15.75241570210792
GSLV R/B                
1 54149U 22138AN  26199.79553286  .00001515  00000+0  12718-3 0  9994
2 54149  87.3816 122.3705 0023116  40.3218 319.9722 14.97392548203548
XRISM                   
1 57800U 23137A   26199.20568667  .00002291  00000+0  12223-3 0  9999
2 57800  31.0010 158.6362 0007853 276.0934  83.8810 15.12682622157569
ACS3                    
1 59588U 24077B   26199.19440608  .00006221  00000+0  43059-2 0  9997
2 59588  97.1755 111.1141 0128757  33.4328 327.4885 13.95327555112369
SPACEMOBILE-003         
1 61045U 24163A   26199.17082198  .00001268  00000+0  71565-4 0  9999
2 61045  52.9670 166.9598 0004461 203.3197 156.7595 15.20713856102482
SPACEMOBILE-005         
1 61046U 24163B   26199.28569049  .00002152  00000+0  11126-3 0  9996
2 61046  52.9757 166.3840 0008560 205.2960 154.7616 15.20722937102499
SPACEMOBILE-001         
1 61047U 24163C   26199.28402451 -.00000022  00000+0  13735-4 0  9994
2 61047  52.9715 166.1008 0007095 203.8926 156.1740 15.20703424102490
SPACEMOBILE-002         
1 61048U 24163D   26199.26788476 -.00009691  00000+0 -42132-3 0  9991
2 61048  52.9785 166.2157 0005413 203.1224 156.9528 15.20679207102493
SPACEMOBILE-004         
1 61049U 24163E   26199.31610674  .00010492  00000+0  48447-3 0  9996
2 61049  52.9719 165.7693 0005789 237.6341 122.4093 15.20746753102506
CZ-8A R/B               
1 66004U 25231K   26199.21613258 -.00000055  00000+0  39119-4 0  9991
2 66004  50.0036 267.3063 0116551 333.2524  26.2411 14.30162663 39381
SZ-21 MODULE            
1 66515U 25246C   26199.80090515  .00033868  00000+0  18525-3 0  9998
2 66515  41.4718 110.0271 0008931 244.3846 115.6077 15.79063200 38735
